{
  "norad_id": 48094,
  "name": "STARLINK-2412",
  "history": [
    {
      "epoch": "2026-04-16T09:45:23.463648Z",
      "apogee_km": 476.19146610373446,
      "perigee_km": 474.24922463205803,
      "latitude_deg": -3.5973910934018467e-06,
      "longitude_deg": -0.8178531556398672,
      "height_km": 476.1515249187089,
      "semi_major_axis_km": 6853.357345367896,
      "eccentricity": 0.0001417,
      "inclination_deg": 53.1626,
      "raan_deg": 350.0846,
      "arg_perigee_deg": 91.949,
      "mean_anomaly_deg": 268.1673,
      "mean_motion_rev_day": 15.30198233
    },
    {
      "epoch": "2026-04-17T21:48:36.838944Z",
      "apogee_km": 476.34502187352064,
      "perigee_km": 474.1269962328706,
      "latitude_deg": -2.366921743416226e-05,
      "longitude_deg": 169.9156301880132,
      "height_km": 476.4744641661162,
      "semi_major_axis_km": 6853.373009053195,
      "eccentricity": 0.00016182,
      "inclination_deg": 53.1613,
      "raan_deg": 343.1045,
      "arg_perigee_deg": 107.8869,
      "mean_anomaly_deg": 252.2308,
      "mean_motion_rev_day": 15.30192987
    },
    {
      "epoch": "2026-04-18T08:46:59.846016Z",
      "apogee_km": 476.23989499053096,
      "perigee_km": 474.349581448495,
      "latitude_deg": 7.414939861255671e-06,
      "longitude_deg": 2.748443188933735,
      "height_km": 476.3736810102705,
      "semi_major_axis_km": 6853.431738219512,
      "eccentricity": 0.00013791,
      "inclination_deg": 53.1626,
      "raan_deg": 340.9838,
      "arg_perigee_deg": 101.0231,
      "mean_anomaly_deg": 259.0925,
      "mean_motion_rev_day": 15.30173318
    },
    {
      "epoch": "2026-04-19T19:16:10.160832Z",
      "apogee_km": 476.3301252261235,
      "perigee_km": 474.2165334805504,
      "latitude_deg": -3.306894744594466e-06,
      "longitude_deg": -162.63464206241693,
      "height_km": 476.2440026518672,
      "semi_major_axis_km": 6853.410329353336,
      "eccentricity": 0.0001542,
      "inclination_deg": 53.1622,
      "raan_deg": 334.31,
      "arg_perigee_deg": 93.947,
      "mean_anomaly_deg": 266.1707,
      "mean_motion_rev_day": 15.30180488
    },
    {
      "epoch": "2026-04-20T07:48:36.817632Z",
      "apogee_km": 476.4312859564934,
      "perigee_km": 474.3145108892668,
      "latitude_deg": 3.3226547218724825e-05,
      "longitude_deg": 6.312084378779926,
      "height_km": 476.3063369346653,
      "semi_major_axis_km": 6853.50989842288,
      "eccentricity": 0.00015443,
      "inclination_deg": 53.1613,
      "raan_deg": 331.8828,
      "arg_perigee_deg": 91.9292,
      "mean_anomaly_deg": 268.1886,
      "mean_motion_rev_day": 15.30147142
    },
    {
      "epoch": "2026-04-21T18:17:46.138848Z",
      "apogee_km": 476.1657611518003,
      "perigee_km": 474.3496115599155,
      "latitude_deg": -2.9576747607773946e-05,
      "longitude_deg": -159.06729081216884,
      "height_km": 476.3110332830591,
      "semi_major_axis_km": 6853.394686355858,
      "eccentricity": 0.0001325,
      "inclination_deg": 53.161,
      "raan_deg": 325.2086,
      "arg_perigee_deg": 99.8419,
      "mean_anomaly_deg": 260.2731,
      "mean_motion_rev_day": 15.30185727
    },
    {
      "epoch": "2026-04-22T19:22:36.410304Z",
      "apogee_km": 476.1080462663358,
      "perigee_km": 474.31109879501764,
      "latitude_deg": -7.892537917034533e-05,
      "longitude_deg": 178.839180526996,
      "height_km": 476.2551815793141,
      "semi_major_axis_km": 6853.346572530677,
      "eccentricity": 0.0001311,
      "inclination_deg": 53.1619,
      "raan_deg": 320.3546,
      "arg_perigee_deg": 99.4393,
      "mean_anomaly_deg": 260.6755,
      "mean_motion_rev_day": 15.30201841
    },
    {
      "epoch": "2026-04-22T20:56:39.557184Z",
      "apogee_km": 476.0928494690834,
      "perigee_km": 474.31783380260003,
      "latitude_deg": -3.0879369252811806e-05,
      "longitude_deg": 154.95882754888882,
      "height_km": 476.24118728038104,
      "semi_major_axis_km": 6853.342341635842,
      "eccentricity": 0.0001295,
      "inclination_deg": 53.1618,
      "raan_deg": 320.0517,
      "arg_perigee_deg": 98.9183,
      "mean_anomaly_deg": 261.1964,
      "mean_motion_rev_day": 15.30203258
    },
    {
      "epoch": "2026-04-24T18:24:12.237120Z",
      "apogee_km": 475.9767188483056,
      "perigee_km": 474.44019879643747,
      "latitude_deg": -2.2468200181937506e-05,
      "longitude_deg": -177.59407334767707,
      "height_km": 475.9759636779711,
      "semi_major_axis_km": 6853.345458822371,
      "eccentricity": 0.0001121,
      "inclination_deg": 53.161,
      "raan_deg": 311.2519,
      "arg_perigee_deg": 80.1891,
      "mean_anomaly_deg": 279.9236,
      "mean_motion_rev_day": 15.30202214
    },
    {
      "epoch": "2026-04-25T19:29:03.795072Z",
      "apogee_km": 476.0226718215117,
      "perigee_km": 474.4381732734191,
      "latitude_deg": 4.648205368864298e-05,
      "longitude_deg": 160.30651337546288,
      "height_km": 475.9688050413557,
      "semi_major_axis_km": 6853.367422547465,
      "eccentricity": 0.0001156,
      "inclination_deg": 53.1604,
      "raan_deg": 306.3973,
      "arg_perigee_deg": 78.3547,
      "mean_anomaly_deg": 281.7584,
      "mean_motion_rev_day": 15.30194858
    },
    {
      "epoch": "2026-04-26T18:59:50.865216Z",
      "apogee_km": 475.92491079588854,
      "perigee_km": 474.42280212236983,
      "latitude_deg": 1.3882719716344234e-05,
      "longitude_deg": 162.0960162377893,
      "height_km": 475.9584720401744,
      "semi_major_axis_km": 6853.310856459128,
      "eccentricity": 0.00010959,
      "inclination_deg": 53.1598,
      "raan_deg": 301.8486,
      "arg_perigee_deg": 81.2929,
      "mean_anomaly_deg": 278.8196,
      "mean_motion_rev_day": 15.30213803
    },
    {
      "epoch": "2026-04-27T18:30:39.747168Z",
      "apogee_km": 475.9202333044268,
      "perigee_km": 474.6057511859144,
      "latitude_deg": -5.293480955183193e-05,
      "longitude_deg": 163.87582405759943,
      "height_km": 476.0392333212818,
      "semi_major_axis_km": 6853.39999224517,
      "eccentricity": 9.59e-05,
      "inclination_deg": 53.1601,
      "raan_deg": 297.2978,
      "arg_perigee_deg": 79.2767,
      "mean_anomaly_deg": 280.8341,
      "mean_motion_rev_day": 15.3018395
    },
    {
      "epoch": "2026-04-28T18:01:28.147008Z",
      "apogee_km": 476.02430678003384,
      "perigee_km": 474.4356963090768,
      "latitude_deg": 5.239849509342991e-06,
      "longitude_deg": 165.65733927205406,
      "height_km": 475.97330692773386,
      "semi_major_axis_km": 6853.367001544555,
      "eccentricity": 0.0001159,
      "inclination_deg": 53.1597,
      "raan_deg": 292.7466,
      "arg_perigee_deg": 78.7531,
      "mean_anomaly_deg": 281.36,
      "mean_motion_rev_day": 15.30194999
    },
    {
      "epoch": "2026-04-29T20:40:22.602144Z",
      "apogee_km": 476.212103517767,
      "perigee_km": 474.22846778500843,
      "latitude_deg": -3.0027162867740384e-05,
      "longitude_deg": 119.67850363929382,
      "height_km": 476.07162970304216,
      "semi_major_axis_km": 6853.357285651387,
      "eccentricity": 0.00014472,
      "inclination_deg": 53.1609,
      "raan_deg": 287.5891,
      "arg_perigee_deg": 87.3076,
      "mean_anomaly_deg": 272.809,
      "mean_motion_rev_day": 15.30198253
    },
    {
      "epoch": "2026-05-02T03:32:13.243200Z",
      "apogee_km": 475.93652900831967,
      "perigee_km": 474.4781373342221,
      "latitude_deg": -5.173646478084058e-06,
      "longitude_deg": 3.84372848400279,
      "height_km": 476.17775079827175,
      "semi_major_axis_km": 6853.344333171271,
      "eccentricity": 0.0001064,
      "inclination_deg": 53.1597,
      "raan_deg": 276.9685,
      "arg_perigee_deg": 95.6735,
      "mean_anomaly_deg": 264.4387,
      "mean_motion_rev_day": 15.30202591
    },
    {
      "epoch": "2026-05-03T18:43:33.683808Z",
      "apogee_km": 476.2366722773995,
      "perigee_km": 474.29167702403265,
      "latitude_deg": -2.1854762603284484e-05,
      "longitude_deg": 126.81490710287815,
      "height_km": 476.1420738950041,
      "semi_major_axis_km": 6853.401174650716,
      "eccentricity": 0.0001419,
      "inclination_deg": 53.1594,
      "raan_deg": 269.3843,
      "arg_perigee_deg": 88.8273,
      "mean_anomaly_deg": 271.289,
      "mean_motion_rev_day": 15.30183554
    },
    {
      "epoch": "2026-05-04T19:48:25.079328Z",
      "apogee_km": 476.276970540016,
      "perigee_km": 474.18121118942963,
      "latitude_deg": -4.397091616117945e-05,
      "longitude_deg": 104.71680127763896,
      "height_km": 476.0604306172468,
      "semi_major_axis_km": 6853.3660908647225,
      "eccentricity": 0.0001529,
      "inclination_deg": 53.1589,
      "raan_deg": 264.5304,
      "arg_perigee_deg": 86.3742,
      "mean_anomaly_deg": 273.7433,
      "mean_motion_rev_day": 15.30195304
    },
    {
      "epoch": "2026-05-05T19:19:13.014336Z",
      "apogee_km": 476.199597595506,
      "perigee_km": 474.2463899972736,
      "latitude_deg": 3.193616421113189e-07,
      "longitude_deg": 106.49744380340891,
      "height_km": 476.0140268871087,
      "semi_major_axis_km": 6853.35999379639,
      "eccentricity": 0.0001425,
      "inclination_deg": 53.1593,
      "raan_deg": 259.9764,
      "arg_perigee_deg": 83.7237,
      "mean_anomaly_deg": 276.3926,
      "mean_motion_rev_day": 15.30197346
    },
    {
      "epoch": "2026-05-06T09:25:41.986848Z",
      "apogee_km": 476.19535581747004,
      "perigee_km": 474.2927201737011,
      "latitude_deg": 4.8040438830881695e-05,
      "longitude_deg": -108.43143862968536,
      "height_km": 476.3640417882165,
      "semi_major_axis_km": 6853.381037995586,
      "eccentricity": 0.00013881,
      "inclination_deg": 53.1576,
      "raan_deg": 257.2476,
      "arg_perigee_deg": 103.5143,
      "mean_anomaly_deg": 256.6013,
      "mean_motion_rev_day": 15.30190298
    }
  ]
}